{"fetched_at":"2026-07-06T08:46:57.233Z","source":"https://celestrak.org/NORAD/elements/gp.php?NAME=EROS&FORMAT=JSON","constellation":"eros","records":[{"OBJECT_NAME":"EROS C3","OBJECT_ID":"2022-179A","EPOCH":"2026-07-05T15:54:24.338880","CLASSIFICATION_TYPE":"U","MEAN_MOTION":15.10975511,"ECCENTRICITY":0.00059768,"INCLINATION":139.3348,"RA_OF_ASC_NODE":110.4436,"ARG_OF_PERICENTER":104.8191,"MEAN_ANOMALY":255.3279,"EPHEMERIS_TYPE":0,"NORAD_CAT_ID":54880,"ELEMENT_SET_NO":999,"REV_AT_EPOCH":19512,"BSTAR":0.00030077482,"MEAN_MOTION_DOT":0.00005369,"MEAN_MOTION_DDOT":0}]}
