EROS C3                 
1 54880U 22179A   26186.66278170  .00005369  00000+0  30077-3 0  9998
2 54880 139.3348 110.4436 0005976 104.8191 255.3279 15.10975511195124
